IRIDIUM 136             
1 42962U 17061H   23249.54022240  .00000049  00000+0  10383-4 0  9998
2 42962  86.3916  89.3035 0002208  93.4233 266.7216 14.34213437309400
